[{"OBJECT_NAME":"ONEWEB-0514","OBJECT_ID":"2022-138V","EPOCH":"2025-11-22T02:48:13.489056","MEAN_MOTION":13.19727076,"ECCENTRICITY":0.0001696,"INCLINATION":87.921,"RA_OF_ASC_NODE":346.1645,"ARG_OF_PERICENTER":93.2676,"MEAN_ANOMALY":266.8651,"EPHEMERIS_TYPE":0,"CLASSIFICATION_TYPE":"U","NORAD_CAT_ID":54132,"ELEMENT_SET_NO":999,"REV_AT_EPOCH":14951,"BSTAR":-4.1544e-5,"MEAN_MOTION_DOT":-4.0e-8,"MEAN_MOTION_DDOT":0},{"OBJECT_NAME":"ONEWEB-0515","OBJECT_ID":"2022-138W","EPOCH":"2025-11-22T10:54:13.595328","MEAN_MOTION":13.20774177,"ECCENTRICITY":0.0001741,"INCLINATION":87.9187,"RA_OF_ASC_NODE":315.6506,"ARG_OF_PERICENTER":60.3776,"MEAN_ANOMALY":299.7531,"EPHEMERIS_TYPE":0,"CLASSIFICATION_TYPE":"U","NORAD_CAT_ID":54133,"ELEMENT_SET_NO":999,"REV_AT_EPOCH":15201,"BSTAR":0.00011948,"MEAN_MOTION_DOT":6.2e-7,"MEAN_MOTION_DDOT":0},{"OBJECT_NAME":"ONEWEB-0516","OBJECT_ID":"2022-138X","EPOCH":"2025-11-22T02:11:49.215840","MEAN_MOTION":13.19726808,"ECCENTRICITY":0.0001993,"INCLINATION":87.9196,"RA_OF_ASC_NODE":346.1913,"ARG_OF_PERICENTER":92.5196,"MEAN_ANOMALY":267.6164,"EPHEMERIS_TYPE":0,"CLASSIFICATION_TYPE":"U","NORAD_CAT_ID":54134,"ELEMENT_SET_NO":999,"REV_AT_EPOCH":14951,"BSTAR":-0.00026809,"MEAN_MOTION_DOT":-9.4e-7,"MEAN_MOTION_DDOT":0},{"OBJECT_NAME":"ONEWEB-0517","OBJECT_ID":"2022-138Y","EPOCH":"2025-11-21T23:53:05.589312","MEAN_MOTION":13.19727469,"ECCENTRICITY":0.0001715,"INCLINATION":87.9215,"RA_OF_ASC_NODE":346.1868,"ARG_OF_PERICENTER":102.5191,"MEAN_ANOMALY":257.6133,"EPHEMERIS_TYPE":0,"CLASSIFICATION_TYPE":"U","NORAD_CAT_ID":54135,"ELEMENT_SET_NO":999,"REV_AT_EPOCH":14950,"BSTAR":0.00028906,"MEAN_MOTION_DOT":1.29e-6,"MEAN_MOTION_DDOT":0},{"OBJECT_NAME":"ONEWEB-0518","OBJECT_ID":"2022-138Z","EPOCH":"2025-11-22T02:09:33.287040","MEAN_MOTION":13.19727302,"ECCENTRICITY":0.0001994,"INCLINATION":87.9196,"RA_OF_ASC_NODE":346.1938,"ARG_OF_PERICENTER":94.9116,"MEAN_ANOMALY":265.2244,"EPHEMERIS_TYPE":0,"CLASSIFICATION_TYPE":"U","NORAD_CAT_ID":54136,"ELEMENT_SET_NO":999,"REV_AT_EPOCH":14951,"BSTAR":-6.4142e-5,"MEAN_MOTION_DOT":-1.3e-7,"MEAN_MOTION_DDOT":0},{"OBJECT_NAME":"ONEWEB-0519","OBJECT_ID":"2022-138AA","EPOCH":"2025-11-22T00:56:46.586112","MEAN_MOTION":13.19727001,"ECCENTRICITY":0.000176,"INCLINATION":87.9215,"RA_OF_ASC_NODE":346.1694,"ARG_OF_PERICENTER":100.7063,"MEAN_ANOMALY":259.4268,"EPHEMERIS_TYPE":0,"CLASSIFICATION_TYPE":"U","NORAD_CAT_ID":54137,"ELEMENT_SET_NO":999,"REV_AT_EPOCH":14951,"BSTAR":-0.0001222,"MEAN_MOTION_DOT":-3.6e-7,"MEAN_MOTION_DDOT":0},{"OBJECT_NAME":"ONEWEB-0520","OBJECT_ID":"2022-138AB","EPOCH":"2025-11-21T23:57:37.440000","MEAN_MOTION":13.19728207,"ECCENTRICITY":0.0002169,"INCLINATION":87.9216,"RA_OF_ASC_NODE":346.1813,"ARG_OF_PERICENTER":93.0887,"MEAN_ANOMALY":267.0494,"EPHEMERIS_TYPE":0,"CLASSIFICATION_TYPE":"U","NORAD_CAT_ID":54138,"ELEMENT_SET_NO":999,"REV_AT_EPOCH":14949,"BSTAR":0.00011564,"MEAN_MOTION_DOT":5.9e-7,"MEAN_MOTION_DDOT":0},{"OBJECT_NAME":"ONEWEB-0521","OBJECT_ID":"2022-138AC","EPOCH":"2025-11-22T02:34:33.837312","MEAN_MOTION":13.19724537,"ECCENTRICITY":0.0001688,"INCLINATION":87.9212,"RA_OF_ASC_NODE":346.1451,"ARG_OF_PERICENTER":98.9527,"MEAN_ANOMALY":261.1797,"EPHEMERIS_TYPE":0,"CLASSIFICATION_TYPE":"U","NORAD_CAT_ID":54139,"ELEMENT_SET_NO":999,"REV_AT_EPOCH":14945,"BSTAR":-0.00098756,"MEAN_MOTION_DOT":-3.82e-6,"MEAN_MOTION_DDOT":0},{"OBJECT_NAME":"ONEWEB-0522","OBJECT_ID":"2022-138AD","EPOCH":"2025-11-22T02:05:01.113216","MEAN_MOTION":13.19725052,"ECCENTRICITY":0.0002003,"INCLINATION":87.9215,"RA_OF_ASC_NODE":346.1503,"ARG_OF_PERICENTER":95.8819,"MEAN_ANOMALY":264.2542,"EPHEMERIS_TYPE":0,"CLASSIFICATION_TYPE":"U","NORAD_CAT_ID":54140,"ELEMENT_SET_NO":999,"REV_AT_EPOCH":14949,"BSTAR":0.00012098,"MEAN_MOTION_DOT":6.1e-7,"MEAN_MOTION_DDOT":0},{"OBJECT_NAME":"ONEWEB-0523","OBJECT_ID":"2022-138AE","EPOCH":"2025-11-22T10:36:04.207104","MEAN_MOTION":13.20772882,"ECCENTRICITY":0.0001144,"INCLINATION":87.9179,"RA_OF_ASC_NODE":315.6726,"ARG_OF_PERICENTER":70.4079,"MEAN_ANOMALY":289.7178,"EPHEMERIS_TYPE":0,"CLASSIFICATION_TYPE":"U","NORAD_CAT_ID":54141,"ELEMENT_SET_NO":999,"REV_AT_EPOCH":15201,"BSTAR":-0.00022196,"MEAN_MOTION_DOT":-7.7e-7,"MEAN_MOTION_DDOT":0},{"OBJECT_NAME":"ONEWEB-0524","OBJECT_ID":"2022-138AF","EPOCH":"2025-11-22T08:31:04.383840","MEAN_MOTION":13.20775912,"ECCENTRICITY":0.0002077,"INCLINATION":87.9177,"RA_OF_ASC_NODE":315.6919,"ARG_OF_PERICENTER":62.8232,"MEAN_ANOMALY":297.3113,"EPHEMERIS_TYPE":0,"CLASSIFICATION_TYPE":"U","NORAD_CAT_ID":54142,"ELEMENT_SET_NO":999,"REV_AT_EPOCH":15200,"BSTAR":0.0011347,"MEAN_MOTION_DOT":4.74e-6,"MEAN_MOTION_DDOT":0},{"OBJECT_NAME":"ONEWEB-0525","OBJECT_ID":"2022-138AG","EPOCH":"2025-11-22T02:32:17.436768","MEAN_MOTION":13.19727734,"ECCENTRICITY":0.0002149,"INCLINATION":87.9209,"RA_OF_ASC_NODE":346.1676,"ARG_OF_PERICENTER":95.3812,"MEAN_ANOMALY":264.7566,"EPHEMERIS_TYPE":0,"CLASSIFICATION_TYPE":"U","NORAD_CAT_ID":54143,"ELEMENT_SET_NO":999,"REV_AT_EPOCH":14951,"BSTAR":-0.00011929,"MEAN_MOTION_DOT":-3.5e-7,"MEAN_MOTION_DDOT":0},{"OBJECT_NAME":"ONEWEB-0526","OBJECT_ID":"2022-138AH","EPOCH":"2025-11-22T03:20:04.033248","MEAN_MOTION":13.19727459,"ECCENTRICITY":0.0001938,"INCLINATION":87.9215,"RA_OF_ASC_NODE":346.1485,"ARG_OF_PERICENTER":92.8094,"MEAN_ANOMALY":267.326,"EPHEMERIS_TYPE":0,"CLASSIFICATION_TYPE":"U","NORAD_CAT_ID":54144,"ELEMENT_SET_NO":999,"REV_AT_EPOCH":14949,"BSTAR":0.0001486,"MEAN_MOTION_DOT":7.2e-7,"MEAN_MOTION_DDOT":0},{"OBJECT_NAME":"ONEWEB-0529","OBJECT_ID":"2022-138AJ","EPOCH":"2025-11-22T01:35:26.147040","MEAN_MOTION":13.19728225,"ECCENTRICITY":0.000209,"INCLINATION":87.9198,"RA_OF_ASC_NODE":346.1936,"ARG_OF_PERICENTER":93.7874,"MEAN_ANOMALY":266.3498,"EPHEMERIS_TYPE":0,"CLASSIFICATION_TYPE":"U","NORAD_CAT_ID":54145,"ELEMENT_SET_NO":999,"REV_AT_EPOCH":14950,"BSTAR":0.00030451,"MEAN_MOTION_DOT":1.35e-6,"MEAN_MOTION_DDOT":0},{"OBJECT_NAME":"ONEWEB-0531","OBJECT_ID":"2022-138AK","EPOCH":"2025-11-22T08:10:35.088096","MEAN_MOTION":13.20772289,"ECCENTRICITY":0.0001458,"INCLINATION":87.9182,"RA_OF_ASC_NODE":315.687,"ARG_OF_PERICENTER":53.4411,"MEAN_ANOMALY":306.6857,"EPHEMERIS_TYPE":0,"CLASSIFICATION_TYPE":"U","NORAD_CAT_ID":54146,"ELEMENT_SET_NO":999,"REV_AT_EPOCH":15200,"BSTAR":-0.0017353,"MEAN_MOTION_DOT":-6.93e-6,"MEAN_MOTION_DDOT":0},{"OBJECT_NAME":"ONEWEB-0535","OBJECT_ID":"2022-138AL","EPOCH":"2025-11-22T02:23:10.265568","MEAN_MOTION":13.19734112,"ECCENTRICITY":0.0001527,"INCLINATION":87.921,"RA_OF_ASC_NODE":346.1517,"ARG_OF_PERICENTER":90.2263,"MEAN_ANOMALY":269.9045,"EPHEMERIS_TYPE":0,"CLASSIFICATION_TYPE":"U","NORAD_CAT_ID":54147,"ELEMENT_SET_NO":999,"REV_AT_EPOCH":14952,"BSTAR":-0.0053563,"MEAN_MOTION_DOT":-2.131e-5,"MEAN_MOTION_DDOT":0},{"OBJECT_NAME":"ONEWEB-0536","OBJECT_ID":"2022-138AM","EPOCH":"2025-11-22T09:41:32.022240","MEAN_MOTION":13.2077221,"ECCENTRICITY":0.000157,"INCLINATION":87.9175,"RA_OF_ASC_NODE":315.7192,"ARG_OF_PERICENTER":53.8779,"MEAN_ANOMALY":306.2499,"EPHEMERIS_TYPE":0,"CLASSIFICATION_TYPE":"U","NORAD_CAT_ID":54148,"ELEMENT_SET_NO":999,"REV_AT_EPOCH":15200,"BSTAR":0.00030461,"MEAN_MOTION_DOT":1.37e-6,"MEAN_MOTION_DDOT":0}]
