ONEWEB-0514             
1 54132U 22138V   25326.11682279 -.00000004  00000+0 -41544-4 0  9992
2 54132  87.9210 346.1645 0001696  93.2676 266.8651 13.19727076149515
ONEWEB-0515             
1 54133U 22138W   25326.45432402  .00000062  00000+0  11948-3 0  9997
2 54133  87.9187 315.6506 0001741  60.3776 299.7531 13.20774177152010
ONEWEB-0516             
1 54134U 22138X   25326.09154185 -.00000094  00000+0 -26809-3 0  9996
2 54134  87.9196 346.1913 0001993  92.5196 267.6164 13.19726808149517
ONEWEB-0517             
1 54135U 22138Y   25325.99520358  .00000129  00000+0  28906-3 0  9991
2 54135  87.9215 346.1868 0001715 102.5191 257.6133 13.19727469149506
ONEWEB-0518             
1 54136U 22138Z   25326.08996860 -.00000013  00000+0 -64142-4 0  9995
2 54136  87.9196 346.1938 0001994  94.9116 265.2244 13.19727302149518
ONEWEB-0519             
1 54137U 22138AA  25326.03942808 -.00000036  00000+0 -12220-3 0  9998
2 54137  87.9215 346.1694 0001760 100.7063 259.4268 13.19727001149515
ONEWEB-0520             
1 54138U 22138AB  25325.99835000  .00000059  00000+0  11564-3 0  9991
2 54138  87.9216 346.1813 0002169  93.0887 267.0494 13.19728207149494
ONEWEB-0521             
1 54139U 22138AC  25326.10733608 -.00000382  00000+0 -98756-3 0  9996
2 54139  87.9212 346.1451 0001688  98.9527 261.1797 13.19724537149458
ONEWEB-0522             
1 54140U 22138AD  25326.08681844  .00000061  00000+0  12098-3 0  9996
2 54140  87.9215 346.1503 0002003  95.8819 264.2542 13.19725052149492
ONEWEB-0523             
1 54141U 22138AE  25326.44171536 -.00000077  00000+0 -22196-3 0  9998
2 54141  87.9179 315.6726 0001144  70.4079 289.7178 13.20772882152016
ONEWEB-0524             
1 54142U 22138AF  25326.35491185  .00000474  00000+0  11347-2 0  9998
2 54142  87.9177 315.6919 0002077  62.8232 297.3113 13.20775912152001
ONEWEB-0525             
1 54143U 22138AG  25326.10575737 -.00000035  00000+0 -11929-3 0  9990
2 54143  87.9209 346.1676 0002149  95.3812 264.7566 13.19727734149511
ONEWEB-0526             
1 54144U 22138AH  25326.13893557  .00000072  00000+0  14860-3 0  9993
2 54144  87.9215 346.1485 0001938  92.8094 267.3260 13.19727459149497
ONEWEB-0529             
1 54145U 22138AJ  25326.06627485  .00000135  00000+0  30451-3 0  9995
2 54145  87.9198 346.1936 0002090  93.7874 266.3498 13.19728225149501
ONEWEB-0531             
1 54146U 22138AK  25326.34068389 -.00000693  00000+0 -17353-2 0  9995
2 54146  87.9182 315.6870 0001458  53.4411 306.6857 13.20772289152007
ONEWEB-0535             
1 54147U 22138AL  25326.09942437 -.00002131  00000+0 -53563-2 0  9995
2 54147  87.9210 346.1517 0001527  90.2263 269.9045 13.19734112149522
ONEWEB-0536             
1 54148U 22138AM  25326.40384285  .00000137  00000+0  30461-3 0  9997
2 54148  87.9175 315.7192 0001570  53.8779 306.2499 13.20772210152007
